ONEWEB-0456             
1 51646U 22012AA  24115.22816253 -.00000277  00000+0 -82995-3 0  9994
2 51646  87.8979 192.0552 0002251 112.0100 248.1267 13.10370229106679
ONEWEB-0457             
1 51647U 22012AB  24115.58673771  .00000630  00000+0  17693-2 0  9993
2 51647  87.8992 192.0013 0002074  88.1492 271.9873 13.10375957106723
ONEWEB-0458             
1 51648U 22012AC  24115.22650097 -.00000127  00000+0 -40041-3 0  9998
2 51648  87.8988 192.0879 0001815  99.3975 260.7357 13.10369873106634
ONEWEB-0461             
1 51649U 22012AD  24115.56759438 -.00003657  00000+0 -94525-2 0  9991
2 51649  87.9199 161.8077 0002303  95.9964 264.1430 13.17666097110693
ONEWEB-0463             
1 51650U 22012AE  24115.55021081  .00000006  00000+0 -18334-4 0  9998
2 51650  87.9203 161.8554 0002088  94.7407 265.3963 13.17649618110470
ONEWEB-0464             
1 51651U 22012AF  24115.22317747  .00001947  00000+0  55384-2 0  9998
2 51651  87.8992 192.0776 0002004 109.9980 250.1364 13.10388242106658
ONEWEB-0468             
1 51652U 22012AG  24115.22981617 -.00000362  00000+0 -10721-2 0  9990
2 51652  87.8990 192.0691 0001996 105.0943 255.0405 13.10370995106632
ONEWEB-0473             
1 51653U 22012AH  24115.29126566  .00000534  00000+0  14940-2 0  9998
2 51653  87.8988 192.0606 0001929 101.6990 258.4354 13.10371036106644
